STARLINK-31570          
1 59324U 24057E   26068.35684828  .00000018  00000+0  10165-4 0  9992
2 59324  42.9966 189.3406 0000715 262.3342  97.7428 15.27569828109782
BANDWAGON-4 OBJECT N    
1 66305U 25248N   26068.03100984  .00024115  00000+0  97341-3 0  9997
2 66305  45.4084 294.9612 0013521 206.7837 153.2354 15.24369076 17177
